{
"type": "FeatureCollection",
"name": "lifts",
"crs": { "type": "name", "properties": { "name": "urn:ogc:def:crs:OGC:1.3:CRS84" } },
"features": [
{ "type": "Feature", "properties": { "fid": 5, "id": 1, "lift_name": "A51", "notes": null, "Active": "yes", "lift_id": "L001", "daily_current_name": "A51", "daily_season": "23-24", "daily_date": "2023-11-20", "daily_season_day": 51, "daily_resort_operating": true, "daily_raw_status": "C", "daily_normalized_status": "C", "daily_reported_map_status": "Closed", "daily_dashboard_status": "Closed", "Lift_Dashboard_Stats_fid": 1, "Lift_Dashboard_Stats_current_name": "A51", "Lift_Dashboard_Stats_historical_opening_seasons": 10, "Lift_Dashboard_Stats_historical_closing_seasons": 9, "Lift_Dashboard_Stats_historical_avg_opening_date": "2000-12-12", "Lift_Dashboard_Stats_historical_avg_closing_date": "2001-04-11", "Lift_Dashboard_Stats_historical_avg_days_open": 116.66666666666667, "Lift_Dashboard_Stats_five_year_seasons": 5, "Lift_Dashboard_Stats_five_year_avg_opening_date": "2000-12-25", "Lift_Dashboard_Stats_five_year_avg_closing_date": "2001-04-11", "Lift_Dashboard_Stats_five_year_avg_days_open": 107.2, "Lift_Dashboard_Stats_historical_avg_opening_day": 73.2, "Lift_Dashboard_Stats_historical_avg_closing_day": 193.44444444444446, "Lift_Dashboard_Stats_five_year_avg_opening_day": 86.2, "Lift_Dashboard_Stats_five_year_avg_closing_day": 193.4, "display_from_year": 2006, "display_to_year": 9999 }, "geometry": { "type": "MultiLineString", "coordinates": [ [ [ -105.958083296462974, 39.593132157121794 ], [ -105.957902053282311, 39.59103515551319 ], [ -105.95761823312759, 39.587314081393515 ] ] ] } },
{ "type": "Feature", "properties": { "fid": 15, "id": 2, "lift_name": "Cadillac Carpet", "notes": null, "Active": "yes", "lift_id": "L002", "daily_current_name": "Cadillac Carpet", "daily_season": "23-24", "daily_date": "2023-11-20", "daily_season_day": 51, "daily_resort_operating": true, "daily_raw_status": "C", "daily_normalized_status": "C", "daily_reported_map_status": "Closed", "daily_dashboard_status": "Closed", "Lift_Dashboard_Stats_fid": 2, "Lift_Dashboard_Stats_current_name": "Cadillac Carpet", "Lift_Dashboard_Stats_historical_opening_seasons": 8, "Lift_Dashboard_Stats_historical_closing_seasons": 7, "Lift_Dashboard_Stats_historical_avg_opening_date": "2000-12-10", "Lift_Dashboard_Stats_historical_avg_closing_date": "2001-04-10", "Lift_Dashboard_Stats_historical_avg_days_open": 117.28571428571429, "Lift_Dashboard_Stats_five_year_seasons": 5, "Lift_Dashboard_Stats_five_year_avg_opening_date": "2000-12-11", "Lift_Dashboard_Stats_five_year_avg_closing_date": "2001-04-10", "Lift_Dashboard_Stats_five_year_avg_days_open": 116.0, "Lift_Dashboard_Stats_historical_avg_opening_day": 70.625, "Lift_Dashboard_Stats_historical_avg_closing_day": 191.85714285714286, "Lift_Dashboard_Stats_five_year_avg_opening_day": 72.4, "Lift_Dashboard_Stats_five_year_avg_closing_day": 191.8, "display_from_year": 2018, "display_to_year": 9999 }, "geometry": { "type": "MultiLineString", "coordinates": [ [ [ -105.940313743304799, 39.59749521031366 ], [ -105.940675843333437, 39.597861896228444 ] ] ] } },
{ "type": "Feature", "properties": { "fid": 16, "id": 3, "lift_name": "Discovery Lift", "notes": null, "Active": "yes", "lift_id": "L003", "daily_current_name": "Discovery Lift", "daily_season": "23-24", "daily_date": "2023-11-20", "daily_season_day": 51, "daily_resort_operating": true, "daily_raw_status": "C", "daily_normalized_status": "C", "daily_reported_map_status": "Closed", "daily_dashboard_status": "Closed", "Lift_Dashboard_Stats_fid": 3, "Lift_Dashboard_Stats_current_name": "Discovery Lift", "Lift_Dashboard_Stats_historical_opening_seasons": 10, "Lift_Dashboard_Stats_historical_closing_seasons": 9, "Lift_Dashboard_Stats_historical_avg_opening_date": "2000-12-06", "Lift_Dashboard_Stats_historical_avg_closing_date": "2001-04-01", "Lift_Dashboard_Stats_historical_avg_days_open": 114.44444444444444, "Lift_Dashboard_Stats_five_year_seasons": 5, "Lift_Dashboard_Stats_five_year_avg_opening_date": "2000-12-10", "Lift_Dashboard_Stats_five_year_avg_closing_date": "2001-03-31", "Lift_Dashboard_Stats_five_year_avg_days_open": 111.6, "Lift_Dashboard_Stats_historical_avg_opening_day": 67.4, "Lift_Dashboard_Stats_historical_avg_closing_day": 182.55555555555554, "Lift_Dashboard_Stats_five_year_avg_opening_day": 70.6, "Lift_Dashboard_Stats_five_year_avg_closing_day": 182.2, "display_from_year": 2006, "display_to_year": 9999 }, "geometry": { "type": "MultiLineString", "coordinates": [ [ [ -105.956574982330324, 39.60446745292775 ], [ -105.95752275445561, 39.602945262193501 ] ] ] } },
{ "type": "Feature", "properties": { "fid": 17, "id": 4, "lift_name": "Double Barrel 1", "notes": null, "Active": "yes", "lift_id": "L004", "daily_current_name": "Double Barrel 1", "daily_season": "23-24", "daily_date": "2023-11-20", "daily_season_day": 51, "daily_resort_operating": true, "daily_raw_status": "C", "daily_normalized_status": "C", "daily_reported_map_status": "Closed", "daily_dashboard_status": "Closed", "Lift_Dashboard_Stats_fid": 4, "Lift_Dashboard_Stats_current_name": "Double Barrel 1", "Lift_Dashboard_Stats_historical_opening_seasons": 10, "Lift_Dashboard_Stats_historical_closing_seasons": 9, "Lift_Dashboard_Stats_historical_avg_opening_date": "2000-12-06", "Lift_Dashboard_Stats_historical_avg_closing_date": "2001-04-01", "Lift_Dashboard_Stats_historical_avg_days_open": 113.88888888888889, "Lift_Dashboard_Stats_five_year_seasons": 5, "Lift_Dashboard_Stats_five_year_avg_opening_date": "2000-12-08", "Lift_Dashboard_Stats_five_year_avg_closing_date": "2001-03-31", "Lift_Dashboard_Stats_five_year_avg_days_open": 112.8, "Lift_Dashboard_Stats_historical_avg_opening_day": 67.4, "Lift_Dashboard_Stats_historical_avg_closing_day": 182.55555555555554, "Lift_Dashboard_Stats_five_year_avg_opening_day": 69.4, "Lift_Dashboard_Stats_five_year_avg_closing_day": 182.2, "display_from_year": 2006, "display_to_year": 9999 }, "geometry": { "type": "MultiLineString", "coordinates": [ [ [ -105.957602666024869, 39.60454033921625 ], [ -105.957930436276499, 39.603904009158057 ] ] ] } },
{ "type": "Feature", "properties": { "fid": 18, "id": 5, "lift_name": "Double Barrel 2", "notes": null, "Active": "yes", "lift_id": "L005", "daily_current_name": "Double Barrel 2", "daily_season": "23-24", "daily_date": "2023-11-20", "daily_season_day": 51, "daily_resort_operating": true, "daily_raw_status": "C", "daily_normalized_status": "C", "daily_reported_map_status": "Closed", "daily_dashboard_status": "Closed", "Lift_Dashboard_Stats_fid": 5, "Lift_Dashboard_Stats_current_name": "Double Barrel 2", "Lift_Dashboard_Stats_historical_opening_seasons": 10, "Lift_Dashboard_Stats_historical_closing_seasons": 9, "Lift_Dashboard_Stats_historical_avg_opening_date": "2000-12-03", "Lift_Dashboard_Stats_historical_avg_closing_date": "2001-04-01", "Lift_Dashboard_Stats_historical_avg_days_open": 114.44444444444444, "Lift_Dashboard_Stats_five_year_seasons": 5, "Lift_Dashboard_Stats_five_year_avg_opening_date": "2000-12-10", "Lift_Dashboard_Stats_five_year_avg_closing_date": "2001-03-31", "Lift_Dashboard_Stats_five_year_avg_days_open": 111.6, "Lift_Dashboard_Stats_historical_avg_opening_day": 64.5, "Lift_Dashboard_Stats_historical_avg_closing_day": 182.55555555555554, "Lift_Dashboard_Stats_five_year_avg_opening_day": 70.6, "Lift_Dashboard_Stats_five_year_avg_closing_day": 182.2, "display_from_year": 2006, "display_to_year": 9999 }, "geometry": { "type": "MultiLineString", "coordinates": [ [ [ -105.957621785097089, 39.604545400460324 ], [ -105.957952746616996, 39.603910271997009 ] ] ] } },
{ "type": "Feature", "properties": { "fid": 14, "id": 6, "lift_name": "Kokomo Carpet", "notes": null, "Active": "yes", "lift_id": "L006", "daily_current_name": "Kokomo Carpet", "daily_season": "23-24", "daily_date": "2023-11-20", "daily_season_day": 51, "daily_resort_operating": true, "daily_raw_status": "O", "daily_normalized_status": "O", "daily_reported_map_status": "Open", "daily_dashboard_status": "Open", "Lift_Dashboard_Stats_fid": 6, "Lift_Dashboard_Stats_current_name": "Kokomo Carpet", "Lift_Dashboard_Stats_historical_opening_seasons": 10, "Lift_Dashboard_Stats_historical_closing_seasons": 9, "Lift_Dashboard_Stats_historical_avg_opening_date": "2000-11-03", "Lift_Dashboard_Stats_historical_avg_closing_date": "2001-04-11", "Lift_Dashboard_Stats_historical_avg_days_open": 157.77777777777777, "Lift_Dashboard_Stats_five_year_seasons": 5, "Lift_Dashboard_Stats_five_year_avg_opening_date": "2000-10-28", "Lift_Dashboard_Stats_five_year_avg_closing_date": "2001-04-11", "Lift_Dashboard_Stats_five_year_avg_days_open": 165.0, "Lift_Dashboard_Stats_historical_avg_opening_day": 34.0, "Lift_Dashboard_Stats_historical_avg_closing_day": 193.44444444444446, "Lift_Dashboard_Stats_five_year_avg_opening_day": 28.4, "Lift_Dashboard_Stats_five_year_avg_closing_day": 193.4, "display_from_year": 2006, "display_to_year": 9999 }, "geometry": { "type": "MultiLineString", "coordinates": [ [ [ -105.942497535097203, 39.579082593016942 ], [ -105.943394631838856, 39.579120747894628 ] ] ] } },
{ "type": "Feature", "properties": { "fid": 19, "id": 7, "lift_name": "Mid Station Carpet", "notes": null, "Active": "yes", "lift_id": "L007", "daily_current_name": "Mid Station Carpet", "daily_season": "23-24", "daily_date": "2023-11-20", "daily_season_day": 51, "daily_resort_operating": true, "daily_raw_status": "O", "daily_normalized_status": "O", "daily_reported_map_status": "Open", "daily_dashboard_status": "Open", "Lift_Dashboard_Stats_fid": 7, "Lift_Dashboard_Stats_current_name": "Mid Station Carpet", "Lift_Dashboard_Stats_historical_opening_seasons": 10, "Lift_Dashboard_Stats_historical_closing_seasons": 9, "Lift_Dashboard_Stats_historical_avg_opening_date": "2000-11-19", "Lift_Dashboard_Stats_historical_avg_closing_date": "2001-04-11", "Lift_Dashboard_Stats_historical_avg_days_open": 144.0, "Lift_Dashboard_Stats_five_year_seasons": 5, "Lift_Dashboard_Stats_five_year_avg_opening_date": "2000-11-16", "Lift_Dashboard_Stats_five_year_avg_closing_date": "2001-04-11", "Lift_Dashboard_Stats_five_year_avg_days_open": 146.2, "Lift_Dashboard_Stats_historical_avg_opening_day": 49.5, "Lift_Dashboard_Stats_historical_avg_closing_day": 192.77777777777777, "Lift_Dashboard_Stats_five_year_avg_opening_day": 47.2, "Lift_Dashboard_Stats_five_year_avg_closing_day": 193.4, "display_from_year": 2006, "display_to_year": 9999 }, "geometry": { "type": "MultiLineString", "coordinates": [ [ [ -105.941662253487479, 39.598148002907173 ], [ -105.941885753280644, 39.597890774833395 ] ] ] } },
{ "type": "Feature", "properties": { "fid": 1, "id": 8, "lift_name": "Montezuma Express", "notes": null, "Active": "yes", "lift_id": "L008", "daily_current_name": "Montezuma Express", "daily_season": "23-24", "daily_date": "2023-11-20", "daily_season_day": 51, "daily_resort_operating": true, "daily_raw_status": "O", "daily_normalized_status": "O", "daily_reported_map_status": "Open", "daily_dashboard_status": "Open", "Lift_Dashboard_Stats_fid": 8, "Lift_Dashboard_Stats_current_name": "Montezuma Express", "Lift_Dashboard_Stats_historical_opening_seasons": 10, "Lift_Dashboard_Stats_historical_closing_seasons": 9, "Lift_Dashboard_Stats_historical_avg_opening_date": "2000-11-02", "Lift_Dashboard_Stats_historical_avg_closing_date": "2001-04-12", "Lift_Dashboard_Stats_historical_avg_days_open": 158.55555555555554, "Lift_Dashboard_Stats_five_year_seasons": 5, "Lift_Dashboard_Stats_five_year_avg_opening_date": "2000-10-28", "Lift_Dashboard_Stats_five_year_avg_closing_date": "2001-04-12", "Lift_Dashboard_Stats_five_year_avg_days_open": 166.2, "Lift_Dashboard_Stats_historical_avg_opening_day": 33.1, "Lift_Dashboard_Stats_historical_avg_closing_day": 194.0, "Lift_Dashboard_Stats_five_year_avg_opening_day": 28.0, "Lift_Dashboard_Stats_five_year_avg_closing_day": 194.2, "display_from_year": 2006, "display_to_year": 9999 }, "geometry": { "type": "MultiLineString", "coordinates": [ [ [ -105.945939054068319, 39.598087388391747 ], [ -105.945646739044776, 39.596997222293275 ], [ -105.945253752355612, 39.595456630760985 ], [ -105.944583365294591, 39.592913521037488 ], [ -105.943719918764273, 39.589597462210662 ], [ -105.943234987398185, 39.587754083197488 ], [ -105.942271541785416, 39.58403586587729 ], [ -105.941501612736943, 39.581116749519211 ], [ -105.941126313276129, 39.57963598939596 ] ] ] } },
{ "type": "Feature", "properties": { "fid": 12, "id": 9, "lift_name": "Outback Express", "notes": null, "Active": "yes", "lift_id": "L009", "daily_current_name": "Outback Express", "daily_season": "23-24", "daily_date": "2023-11-20", "daily_season_day": 51, "daily_resort_operating": true, "daily_raw_status": "C", "daily_normalized_status": "C", "daily_reported_map_status": "Closed", "daily_dashboard_status": "Closed", "Lift_Dashboard_Stats_fid": 9, "Lift_Dashboard_Stats_current_name": "Outback Express", "Lift_Dashboard_Stats_historical_opening_seasons": 10, "Lift_Dashboard_Stats_historical_closing_seasons": 9, "Lift_Dashboard_Stats_historical_avg_opening_date": "2000-12-15", "Lift_Dashboard_Stats_historical_avg_closing_date": "2001-04-11", "Lift_Dashboard_Stats_historical_avg_days_open": 113.88888888888889, "Lift_Dashboard_Stats_five_year_seasons": 5, "Lift_Dashboard_Stats_five_year_avg_opening_date": "2000-12-23", "Lift_Dashboard_Stats_five_year_avg_closing_date": "2001-04-10", "Lift_Dashboard_Stats_five_year_avg_days_open": 107.8, "Lift_Dashboard_Stats_historical_avg_opening_day": 75.9, "Lift_Dashboard_Stats_historical_avg_closing_day": 192.66666666666666, "Lift_Dashboard_Stats_five_year_avg_opening_day": 83.6, "Lift_Dashboard_Stats_five_year_avg_closing_day": 192.0, "display_from_year": 2006, "display_to_year": 9999 }, "geometry": { "type": "MultiLineString", "coordinates": [ [ [ -105.939597539459157, 39.548107492353054 ], [ -105.92027762130779, 39.545250161216153 ] ] ] } },
{ "type": "Feature", "properties": { "fid": 7, "id": 10, "lift_name": "Outpost Gondola", "notes": null, "Active": "yes", "lift_id": "L010", "daily_current_name": "Outpost Gondola", "daily_season": "23-24", "daily_date": "2023-11-20", "daily_season_day": 51, "daily_resort_operating": true, "daily_raw_status": "C", "daily_normalized_status": "C", "daily_reported_map_status": "Closed", "daily_dashboard_status": "Closed", "Lift_Dashboard_Stats_fid": 10, "Lift_Dashboard_Stats_current_name": "Outpost Gondola", "Lift_Dashboard_Stats_historical_opening_seasons": 10, "Lift_Dashboard_Stats_historical_closing_seasons": 9, "Lift_Dashboard_Stats_historical_avg_opening_date": "2000-11-30", "Lift_Dashboard_Stats_historical_avg_closing_date": "2001-04-11", "Lift_Dashboard_Stats_historical_avg_days_open": 128.0, "Lift_Dashboard_Stats_five_year_seasons": 5, "Lift_Dashboard_Stats_five_year_avg_opening_date": "2000-12-04", "Lift_Dashboard_Stats_five_year_avg_closing_date": "2001-04-11", "Lift_Dashboard_Stats_five_year_avg_days_open": 128.0, "Lift_Dashboard_Stats_historical_avg_opening_day": 60.7, "Lift_Dashboard_Stats_historical_avg_closing_day": 192.77777777777777, "Lift_Dashboard_Stats_five_year_avg_opening_day": 65.4, "Lift_Dashboard_Stats_five_year_avg_closing_day": 193.4, "display_from_year": 2006, "display_to_year": 9999 }, "geometry": { "type": "MultiLineString", "coordinates": [ [ [ -105.940319152783658, 39.578793301805689 ], [ -105.936757743702245, 39.570542155849118 ], [ -105.933813455123399, 39.563723211939354 ], [ -105.932201029623442, 39.560030949833447 ] ] ] } },
{ "type": "Feature", "properties": { "fid": 4, "id": 11, "lift_name": "Peru Express", "notes": null, "Active": "yes", "lift_id": "L011", "daily_current_name": "Peru Express", "daily_season": "23-24", "daily_date": "2023-11-20", "daily_season_day": 51, "daily_resort_operating": true, "daily_raw_status": "O", "daily_normalized_status": "O", "daily_reported_map_status": "Open", "daily_dashboard_status": "Open", "Lift_Dashboard_Stats_fid": 11, "Lift_Dashboard_Stats_current_name": "Peru Express", "Lift_Dashboard_Stats_historical_opening_seasons": 10, "Lift_Dashboard_Stats_historical_closing_seasons": 9, "Lift_Dashboard_Stats_historical_avg_opening_date": "2000-11-18", "Lift_Dashboard_Stats_historical_avg_closing_date": "2001-04-12", "Lift_Dashboard_Stats_historical_avg_days_open": 144.33333333333334, "Lift_Dashboard_Stats_five_year_seasons": 5, "Lift_Dashboard_Stats_five_year_avg_opening_date": "2000-11-14", "Lift_Dashboard_Stats_five_year_avg_closing_date": "2001-04-12", "Lift_Dashboard_Stats_five_year_avg_days_open": 147.8, "Lift_Dashboard_Stats_historical_avg_opening_day": 48.8, "Lift_Dashboard_Stats_historical_avg_closing_day": 193.88888888888889, "Lift_Dashboard_Stats_five_year_avg_opening_day": 45.4, "Lift_Dashboard_Stats_five_year_avg_closing_day": 194.2, "display_from_year": 2006, "display_to_year": 9999 }, "geometry": { "type": "MultiLineString", "coordinates": [ [ [ -105.957081361673303, 39.587417227604952 ], [ -105.953897901247274, 39.603810040114176 ] ] ] } },
{ "type": "Feature", "properties": { "fid": 9, "id": 12, "lift_name": "Ranger", "notes": null, "Active": "yes", "lift_id": "L012", "daily_current_name": "Ranger", "daily_season": "23-24", "daily_date": "2023-11-20", "daily_season_day": 51, "daily_resort_operating": true, "daily_raw_status": "O", "daily_normalized_status": "O", "daily_reported_map_status": "Open", "daily_dashboard_status": "Open", "Lift_Dashboard_Stats_fid": 12, "Lift_Dashboard_Stats_current_name": "Ranger", "Lift_Dashboard_Stats_historical_opening_seasons": 10, "Lift_Dashboard_Stats_historical_closing_seasons": 9, "Lift_Dashboard_Stats_historical_avg_opening_date": "2000-11-14", "Lift_Dashboard_Stats_historical_avg_closing_date": "2001-04-11", "Lift_Dashboard_Stats_historical_avg_days_open": 147.44444444444446, "Lift_Dashboard_Stats_five_year_seasons": 5, "Lift_Dashboard_Stats_five_year_avg_opening_date": "2000-11-12", "Lift_Dashboard_Stats_five_year_avg_closing_date": "2001-04-11", "Lift_Dashboard_Stats_five_year_avg_days_open": 150.8, "Lift_Dashboard_Stats_historical_avg_opening_day": 44.8, "Lift_Dashboard_Stats_historical_avg_closing_day": 193.44444444444446, "Lift_Dashboard_Stats_five_year_avg_opening_day": 42.6, "Lift_Dashboard_Stats_five_year_avg_closing_day": 193.4, "display_from_year": 2006, "display_to_year": 9999 }, "geometry": { "type": "MultiLineString", "coordinates": [ [ [ -105.942054529364242, 39.578902777967357 ], [ -105.944072668302042, 39.57668588784702 ] ] ] } },
{ "type": "Feature", "properties": { "fid": 2, "id": 13, "lift_name": "RR Gondola", "notes": null, "Active": "yes", "lift_id": "L013", "daily_current_name": "RR Gondola", "daily_season": "23-24", "daily_date": "2023-11-20", "daily_season_day": 51, "daily_resort_operating": true, "daily_raw_status": "O", "daily_normalized_status": "O", "daily_reported_map_status": "Open", "daily_dashboard_status": "Open", "Lift_Dashboard_Stats_fid": 13, "Lift_Dashboard_Stats_current_name": "RR Gondola", "Lift_Dashboard_Stats_historical_opening_seasons": 10, "Lift_Dashboard_Stats_historical_closing_seasons": 9, "Lift_Dashboard_Stats_historical_avg_opening_date": "2000-11-02", "Lift_Dashboard_Stats_historical_avg_closing_date": "2001-04-12", "Lift_Dashboard_Stats_historical_avg_days_open": 157.88888888888889, "Lift_Dashboard_Stats_five_year_seasons": 5, "Lift_Dashboard_Stats_five_year_avg_opening_date": "2000-10-28", "Lift_Dashboard_Stats_five_year_avg_closing_date": "2001-04-11", "Lift_Dashboard_Stats_five_year_avg_days_open": 164.4, "Lift_Dashboard_Stats_historical_avg_opening_day": 33.1, "Lift_Dashboard_Stats_historical_avg_closing_day": 193.88888888888889, "Lift_Dashboard_Stats_five_year_avg_opening_day": 28.0, "Lift_Dashboard_Stats_five_year_avg_closing_day": 193.4, "display_from_year": 2006, "display_to_year": 9999 }, "geometry": { "type": "MultiLineString", "coordinates": [ [ [ -105.941359190297334, 39.605623016612128 ], [ -105.941356650721772, 39.60480793237214 ], [ -105.941264033168267, 39.599100092117787 ], [ -105.941186018791186, 39.595102632348684 ], [ -105.941071371386485, 39.588317129142212 ], [ -105.940941679947144, 39.579904112170304 ] ] ] } },
{ "type": "Feature", "properties": { "fid": 8, "id": 14, "lift_name": "Ruby Express", "notes": null, "Active": "yes", "lift_id": "L014", "daily_current_name": "Ruby Express", "daily_season": "23-24", "daily_date": "2023-11-20", "daily_season_day": 51, "daily_resort_operating": true, "daily_raw_status": "C", "daily_normalized_status": "C", "daily_reported_map_status": "Closed", "daily_dashboard_status": "Closed", "Lift_Dashboard_Stats_fid": 14, "Lift_Dashboard_Stats_current_name": "Ruby Express", "Lift_Dashboard_Stats_historical_opening_seasons": 10, "Lift_Dashboard_Stats_historical_closing_seasons": 9, "Lift_Dashboard_Stats_historical_avg_opening_date": "2000-11-29", "Lift_Dashboard_Stats_historical_avg_closing_date": "2001-04-11", "Lift_Dashboard_Stats_historical_avg_days_open": 130.11111111111111, "Lift_Dashboard_Stats_five_year_seasons": 5, "Lift_Dashboard_Stats_five_year_avg_opening_date": "2000-12-02", "Lift_Dashboard_Stats_five_year_avg_closing_date": "2001-04-11", "Lift_Dashboard_Stats_five_year_avg_days_open": 130.2, "Lift_Dashboard_Stats_historical_avg_opening_day": 59.5, "Lift_Dashboard_Stats_historical_avg_closing_day": 193.44444444444446, "Lift_Dashboard_Stats_five_year_avg_opening_day": 63.2, "Lift_Dashboard_Stats_five_year_avg_closing_day": 193.4, "display_from_year": 2006, "display_to_year": 9999 }, "geometry": { "type": "MultiLineString", "coordinates": [ [ [ -105.951165365275159, 39.565440188392643 ], [ -105.941632353949728, 39.578749903082908 ] ] ] } },
{ "type": "Feature", "properties": { "fid": 10, "id": 15, "lift_name": "Santiago Express", "notes": null, "Active": "yes", "lift_id": "L015", "daily_current_name": "Santiago Express", "daily_season": "23-24", "daily_date": "2023-11-20", "daily_season_day": 51, "daily_resort_operating": true, "daily_raw_status": "C", "daily_normalized_status": "C", "daily_reported_map_status": "Closed", "daily_dashboard_status": "Closed", "Lift_Dashboard_Stats_fid": 15, "Lift_Dashboard_Stats_current_name": "Santiago Express", "Lift_Dashboard_Stats_historical_opening_seasons": 10, "Lift_Dashboard_Stats_historical_closing_seasons": 9, "Lift_Dashboard_Stats_historical_avg_opening_date": "2000-11-30", "Lift_Dashboard_Stats_historical_avg_closing_date": "2001-04-11", "Lift_Dashboard_Stats_historical_avg_days_open": 128.88888888888889, "Lift_Dashboard_Stats_five_year_seasons": 5, "Lift_Dashboard_Stats_five_year_avg_opening_date": "2000-12-04", "Lift_Dashboard_Stats_five_year_avg_closing_date": "2001-04-11", "Lift_Dashboard_Stats_five_year_avg_days_open": 128.0, "Lift_Dashboard_Stats_historical_avg_opening_day": 60.6, "Lift_Dashboard_Stats_historical_avg_closing_day": 193.44444444444446, "Lift_Dashboard_Stats_five_year_avg_opening_day": 65.4, "Lift_Dashboard_Stats_five_year_avg_closing_day": 193.4, "display_from_year": 2006, "display_to_year": 9999 }, "geometry": { "type": "MultiLineString", "coordinates": [ [ [ -105.950354432253022, 39.564493882624056 ], [ -105.93624569224464, 39.559708801271888 ] ] ] } },
{ "type": "Feature", "properties": { "fid": 3, "id": 16, "lift_name": "Summit Express", "notes": null, "Active": "yes", "lift_id": "L016", "daily_current_name": "Summit Express", "daily_season": "23-24", "daily_date": "2023-11-20", "daily_season_day": 51, "daily_resort_operating": true, "daily_raw_status": "O", "daily_normalized_status": "O", "daily_reported_map_status": "Open", "daily_dashboard_status": "Open", "Lift_Dashboard_Stats_fid": 16, "Lift_Dashboard_Stats_current_name": "Summit Express", "Lift_Dashboard_Stats_historical_opening_seasons": 10, "Lift_Dashboard_Stats_historical_closing_seasons": 9, "Lift_Dashboard_Stats_historical_avg_opening_date": "2000-11-11", "Lift_Dashboard_Stats_historical_avg_closing_date": "2001-04-11", "Lift_Dashboard_Stats_historical_avg_days_open": 148.55555555555554, "Lift_Dashboard_Stats_five_year_seasons": 5, "Lift_Dashboard_Stats_five_year_avg_opening_date": "2000-11-05", "Lift_Dashboard_Stats_five_year_avg_closing_date": "2001-04-11", "Lift_Dashboard_Stats_five_year_avg_days_open": 154.2, "Lift_Dashboard_Stats_historical_avg_opening_day": 42.0, "Lift_Dashboard_Stats_historical_avg_closing_day": 193.44444444444446, "Lift_Dashboard_Stats_five_year_avg_opening_day": 35.8, "Lift_Dashboard_Stats_five_year_avg_closing_day": 193.4, "display_from_year": 2006, "display_to_year": 9999 }, "geometry": { "type": "MultiLineString", "coordinates": [ [ [ -105.94074783461808, 39.579629448720489 ], [ -105.94077779670684, 39.581465453985047 ], [ -105.940844192570452, 39.585514324992026 ], [ -105.940899570878742, 39.588663437499292 ], [ -105.940996204909865, 39.594031398555309 ], [ -105.941175734288038, 39.604498395722217 ] ] ] } },
{ "type": "Feature", "properties": { "fid": 20, "id": 17, "lift_name": "Sun Kid Carpet", "notes": null, "Active": "yes", "lift_id": "L017", "daily_current_name": "Sun Kid Carpet", "daily_season": "23-24", "daily_date": "2023-11-20", "daily_season_day": 51, "daily_resort_operating": true, "daily_raw_status": "C", "daily_normalized_status": "C", "daily_reported_map_status": "Closed", "daily_dashboard_status": "Closed", "Lift_Dashboard_Stats_fid": 17, "Lift_Dashboard_Stats_current_name": "Sun Kid Carpet", "Lift_Dashboard_Stats_historical_opening_seasons": 10, "Lift_Dashboard_Stats_historical_closing_seasons": 9, "Lift_Dashboard_Stats_historical_avg_opening_date": "2000-12-08", "Lift_Dashboard_Stats_historical_avg_closing_date": "2001-04-01", "Lift_Dashboard_Stats_historical_avg_days_open": 112.55555555555556, "Lift_Dashboard_Stats_five_year_seasons": 5, "Lift_Dashboard_Stats_five_year_avg_opening_date": "2000-12-10", "Lift_Dashboard_Stats_five_year_avg_closing_date": "2001-03-31", "Lift_Dashboard_Stats_five_year_avg_days_open": 111.4, "Lift_Dashboard_Stats_historical_avg_opening_day": 69.1, "Lift_Dashboard_Stats_historical_avg_closing_day": 182.55555555555554, "Lift_Dashboard_Stats_five_year_avg_opening_day": 70.8, "Lift_Dashboard_Stats_five_year_avg_closing_day": 182.2, "display_from_year": 2006, "display_to_year": 9999 }, "geometry": { "type": "MultiLineString", "coordinates": [ [ [ -105.956339782233954, 39.604477524488047 ], [ -105.956403989315021, 39.604240613407484 ] ] ] } },
{ "type": "Feature", "properties": { "fid": 21, "id": 18, "lift_name": "Triangle Carpet", "notes": null, "Active": "yes", "lift_id": "L018", "daily_current_name": "Triangle Carpet", "daily_season": "23-24", "daily_date": "2023-11-20", "daily_season_day": 51, "daily_resort_operating": true, "daily_raw_status": "C", "daily_normalized_status": "C", "daily_reported_map_status": "Closed", "daily_dashboard_status": "Closed", "Lift_Dashboard_Stats_fid": 18, "Lift_Dashboard_Stats_current_name": "Triangle Carpet", "Lift_Dashboard_Stats_historical_opening_seasons": 10, "Lift_Dashboard_Stats_historical_closing_seasons": 9, "Lift_Dashboard_Stats_historical_avg_opening_date": "2000-12-13", "Lift_Dashboard_Stats_historical_avg_closing_date": "2001-04-03", "Lift_Dashboard_Stats_historical_avg_days_open": 107.55555555555556, "Lift_Dashboard_Stats_five_year_seasons": 5, "Lift_Dashboard_Stats_five_year_avg_opening_date": "2000-12-13", "Lift_Dashboard_Stats_five_year_avg_closing_date": "2001-03-31", "Lift_Dashboard_Stats_five_year_avg_days_open": 104.6, "Lift_Dashboard_Stats_historical_avg_opening_day": 73.9, "Lift_Dashboard_Stats_historical_avg_closing_day": 184.88888888888889, "Lift_Dashboard_Stats_five_year_avg_opening_day": 74.2, "Lift_Dashboard_Stats_five_year_avg_closing_day": 182.2, "display_from_year": 2006, "display_to_year": 9999 }, "geometry": { "type": "MultiLineString", "coordinates": [ [ [ -105.956485335494591, 39.604095658276819 ], [ -105.956882339150454, 39.603702511417239 ] ] ] } },
{ "type": "Feature", "properties": { "fid": 22, "id": 19, "lift_name": "Tubing Hill", "notes": null, "Active": "yes", "lift_id": "L019", "daily_current_name": "Tubing Hill", "daily_season": "23-24", "daily_date": "2023-11-20", "daily_season_day": 51, "daily_resort_operating": true, "daily_raw_status": "C", "daily_normalized_status": "C", "daily_reported_map_status": "Closed", "daily_dashboard_status": "Closed", "Lift_Dashboard_Stats_fid": 19, "Lift_Dashboard_Stats_current_name": "Tubing Hill", "Lift_Dashboard_Stats_historical_opening_seasons": 9, "Lift_Dashboard_Stats_historical_closing_seasons": 8, "Lift_Dashboard_Stats_historical_avg_opening_date": "2000-12-03", "Lift_Dashboard_Stats_historical_avg_closing_date": "2001-04-06", "Lift_Dashboard_Stats_historical_avg_days_open": 120.0, "Lift_Dashboard_Stats_five_year_seasons": 4, "Lift_Dashboard_Stats_five_year_avg_opening_date": "2000-11-30", "Lift_Dashboard_Stats_five_year_avg_closing_date": "2001-04-01", "Lift_Dashboard_Stats_five_year_avg_days_open": 112.0, "Lift_Dashboard_Stats_historical_avg_opening_day": 63.555555555555557, "Lift_Dashboard_Stats_historical_avg_closing_day": 187.875, "Lift_Dashboard_Stats_five_year_avg_opening_day": 61.0, "Lift_Dashboard_Stats_five_year_avg_closing_day": 182.75, "display_from_year": 2006, "display_to_year": 9999 }, "geometry": { "type": "MultiLineString", "coordinates": [ [ [ -105.937672603826101, 39.578783476762268 ], [ -105.939121335989753, 39.578895801827812 ] ] ] } },
{ "type": "Feature", "properties": { "fid": 11, "id": 20, "lift_name": "Wayback", "notes": null, "Active": "yes", "lift_id": "L020", "daily_current_name": "Wayback", "daily_season": "23-24", "daily_date": "2023-11-20", "daily_season_day": 51, "daily_resort_operating": true, "daily_raw_status": "C", "daily_normalized_status": "C", "daily_reported_map_status": "Closed", "daily_dashboard_status": "Closed", "Lift_Dashboard_Stats_fid": 20, "Lift_Dashboard_Stats_current_name": "Wayback", "Lift_Dashboard_Stats_historical_opening_seasons": 10, "Lift_Dashboard_Stats_historical_closing_seasons": 9, "Lift_Dashboard_Stats_historical_avg_opening_date": "2000-12-09", "Lift_Dashboard_Stats_historical_avg_closing_date": "2001-04-11", "Lift_Dashboard_Stats_historical_avg_days_open": 119.22222222222223, "Lift_Dashboard_Stats_five_year_seasons": 5, "Lift_Dashboard_Stats_five_year_avg_opening_date": "2000-12-16", "Lift_Dashboard_Stats_five_year_avg_closing_date": "2001-04-10", "Lift_Dashboard_Stats_five_year_avg_days_open": 114.2, "Lift_Dashboard_Stats_historical_avg_opening_day": 69.8, "Lift_Dashboard_Stats_historical_avg_closing_day": 192.66666666666666, "Lift_Dashboard_Stats_five_year_avg_opening_day": 77.2, "Lift_Dashboard_Stats_five_year_avg_closing_day": 192.0, "display_from_year": 2006, "display_to_year": 9999 }, "geometry": { "type": "MultiLineString", "coordinates": [ [ [ -105.935601492380471, 39.558874056547758 ], [ -105.942990153907303, 39.550671653232797 ] ] ] } },
{ "type": "Feature", "properties": { "fid": 13, "id": 21, "lift_name": "Bergman Express", "notes": null, "Active": "yes", "lift_id": "L021", "daily_current_name": "Bergman Express", "daily_season": "23-24", "daily_date": "2023-11-20", "daily_season_day": 51, "daily_resort_operating": true, "daily_raw_status": "C", "daily_normalized_status": "C", "daily_reported_map_status": "Closed", "daily_dashboard_status": "Closed", "Lift_Dashboard_Stats_fid": 21, "Lift_Dashboard_Stats_current_name": "Bergman Express", "Lift_Dashboard_Stats_historical_opening_seasons": 3, "Lift_Dashboard_Stats_historical_closing_seasons": 3, "Lift_Dashboard_Stats_historical_avg_opening_date": "2001-01-05", "Lift_Dashboard_Stats_historical_avg_closing_date": "2001-04-03", "Lift_Dashboard_Stats_historical_avg_days_open": 87.333333333333329, "Lift_Dashboard_Stats_five_year_seasons": 3, "Lift_Dashboard_Stats_five_year_avg_opening_date": "2001-01-05", "Lift_Dashboard_Stats_five_year_avg_closing_date": "2001-04-03", "Lift_Dashboard_Stats_five_year_avg_days_open": 87.333333333333329, "Lift_Dashboard_Stats_historical_avg_opening_day": 96.666666666666671, "Lift_Dashboard_Stats_historical_avg_closing_day": 185.0, "Lift_Dashboard_Stats_five_year_avg_opening_day": 96.666666666666671, "Lift_Dashboard_Stats_five_year_avg_closing_day": 185.0, "display_from_year": 2023, "display_to_year": 9999 }, "geometry": { "type": "MultiLineString", "coordinates": [ [ [ -105.931260323347487, 39.564184291382482 ], [ -105.914743550239336, 39.563352438955484 ] ] ] } },
{ "type": "Feature", "properties": { "fid": 6, "id": 22, "lift_name": "Argentine", "notes": null, "Active": "no", "lift_id": "L022", "daily_current_name": null, "daily_season": null, "daily_date": null, "daily_season_day": null, "daily_resort_operating": null, "daily_raw_status": null, "daily_normalized_status": null, "daily_reported_map_status": null, "daily_dashboard_status": null, "Lift_Dashboard_Stats_fid": 22, "Lift_Dashboard_Stats_current_name": "Argentine", "Lift_Dashboard_Stats_historical_opening_seasons": 1, "Lift_Dashboard_Stats_historical_closing_seasons": 1, "Lift_Dashboard_Stats_historical_avg_opening_date": "2000-12-25", "Lift_Dashboard_Stats_historical_avg_closing_date": "2001-04-01", "Lift_Dashboard_Stats_historical_avg_days_open": 39.0, "Lift_Dashboard_Stats_five_year_seasons": null, "Lift_Dashboard_Stats_five_year_avg_opening_date": null, "Lift_Dashboard_Stats_five_year_avg_closing_date": null, "Lift_Dashboard_Stats_five_year_avg_days_open": null, "Lift_Dashboard_Stats_historical_avg_opening_day": 86.0, "Lift_Dashboard_Stats_historical_avg_closing_day": 183.0, "Lift_Dashboard_Stats_five_year_avg_opening_day": null, "Lift_Dashboard_Stats_five_year_avg_closing_day": null, "display_from_year": 2006, "display_to_year": 2018 }, "geometry": { "type": "MultiLineString", "coordinates": [ [ [ -105.953503294690904, 39.604316940672511 ], [ -105.948707765109063, 39.599095003048973 ], [ -105.945796205843763, 39.595912821263681 ] ] ] } }
]
}
